start=new Date('2023-06-09T00:00:00.000Z').valueOf();
sats=[{"EPHEMERIS_TYPE":"0","CENTER_NAME":"EARTH","SEMIMAJOR_AXIS":"6925.376","GP_ID":"233502324","BSTAR":"-0.00000634210000","EPOCH":"2023-06-08T13:50:09.236256","SITE":"AFETR","REF_FRAME":"TEME","MEAN_MOTION_DDOT":"0.0000000000000","FILE":"3928201","RCS_SIZE":"LARGE","MEAN_MOTION":"15.06391059","MEAN_ANOMALY":"267.0931","REV_AT_EPOCH":"11235","TLE_LINE2":"2 48678  53.0554 303.7455 0000995  93.0172 267.0931 15.06391059112358","PERIOD":"95.593","TIME_SYSTEM":"UTC","PERIAPSIS":"546.552","APOAPSIS":"547.930","CLASSIFICATION_TYPE":"U","ELEMENT_SET_NO":"999","OBJECT_ID":"2021-044AS","COUNTRY_CODE":"US","ARG_OF_PERICENTER":"93.0172","RA_OF_ASC_NODE":"303.7455","NORAD_CAT_ID":"48678","MEAN_ELEMENT_THEORY":"SGP4","INCLINATION":"53.0554","OBJECT_NAME":"STARLINK-2615","MEAN_MOTION_DOT":"-0.00000376","TLE_LINE1":"1 48678U 21044AS  23159.57649579 -.00000376  00000-0 -63421-5 0  9995","LAUNCH_DATE":"2021-05-26","ECCENTRICITY":"0.00009950","DECAY_DATE":null,"OBJECT_TYPE":"PAYLOAD"},{"GP_ID":"233502575","BSTAR":"0.00008178800000","SITE":"AFETR","EPOCH":"2023-06-08T13:44:50.836704","EPHEMERIS_TYPE":"0","CENTER_NAME":"EARTH","SEMIMAJOR_AXIS":"6925.366","TLE_LINE2":"2 48679  53.0542 303.7619 0001157  98.5155 261.5965 15.06394377112352","REV_AT_EPOCH":"11235","PERIOD":"95.592","TIME_SYSTEM":"UTC","CLASSIFICATION_TYPE":"U","PERIAPSIS":"546.430","APOAPSIS":"548.032","COUNTRY_CODE":"US","ELEMENT_SET_NO":"999","OBJECT_ID":"2021-044AT","FILE":"3928201","MEAN_MOTION_DDOT":"0.0000000000000","REF_FRAME":"TEME","RCS_SIZE":"LARGE","MEAN_ANOMALY":"261.5965","MEAN_MOTION":"15.06394377","RA_OF_ASC_NODE":"303.7619","NORAD_CAT_ID":"48679","MEAN_ELEMENT_THEORY":"SGP4","ARG_OF_PERICENTER":"98.5155","DECAY_DATE":null,"ECCENTRICITY":"0.00011570","OBJECT_TYPE":"PAYLOAD","INCLINATION":"53.0542","OBJECT_NAME":"STARLINK-2648","MEAN_MOTION_DOT":"0.00000937","TLE_LINE1":"1 48679U 21044AT  23159.57281061  .00000937  00000-0  81788-4 0  9990","LAUNCH_DATE":"2021-05-26"},{"ECCENTRICITY":"0.00010610","DECAY_DATE":null,"OBJECT_TYPE":"PAYLOAD","OBJECT_NAME":"STARLINK-2649","INCLINATION":"53.0544","LAUNCH_DATE":"2021-05-26","TLE_LINE1":"1 48680U 21044AU  23159.56913180 -.00000809  00000-0 -35440-4 0  9999","MEAN_MOTION_DOT":"-0.00000809","NORAD_CAT_ID":"48680","RA_OF_ASC_NODE":"303.7816","MEAN_ELEMENT_THEORY":"SGP4","ARG_OF_PERICENTER":"92.9581","TIME_SYSTEM":"UTC","REV_AT_EPOCH":"11235","TLE_LINE2":"2 48680  53.0544 303.7816 0001061  92.9581 267.1529 15.06385989112357","PERIOD":"95.593","OBJECT_ID":"2021-044AU","ELEMENT_SET_NO":"999","COUNTRY_CODE":"US","APOAPSIS":"547.991","PERIAPSIS":"546.522","CLASSIFICATION_TYPE":"U","REF_FRAME":"TEME","MEAN_MOTION_DDOT":"0.0000000000000","FILE":"3928201","MEAN_MOTION":"15.06385989","MEAN_ANOMALY":"267.1529","RCS_SIZE":"LARGE","GP_ID":"233502824","EPOCH":"2023-06-08T13:39:32.987520","SITE":"AFETR","BSTAR":"-0.00003544000000","CENTER_NAME":"EARTH","EPHEMERIS_TYPE":"0","SEMIMAJOR_AXIS":"6925.391"},{"OBJECT_TYPE":"PAYLOAD","ECCENTRICITY":"0.00008760","DECAY_DATE":null,"LAUNCH_DATE":"2021-05-26","TLE_LINE1":"1 48681U 21044AV  23159.56823448  .00017778  00000-0  12098-2 0  9990","MEAN_MOTION_DOT":"0.00017778","OBJECT_NAME":"STARLINK-2725","INCLINATION":"53.0537","MEAN_ELEMENT_THEORY":"SGP4","NORAD_CAT_ID":"48681","RA_OF_ASC_NODE":"274.0255","ARG_OF_PERICENTER":"104.5161","COUNTRY_CODE":"US","ELEMENT_SET_NO":"999","OBJECT_ID":"2021-044AV","CLASSIFICATION_TYPE":"U","PERIAPSIS":"546.649","APOAPSIS":"547.862","TIME_SYSTEM":"UTC","TLE_LINE2":"2 48681  53.0537 274.0255 0000876 104.5161 255.5925 15.06386219112767","PERIOD":"95.593","REV_AT_EPOCH":"11276","MEAN_ANOMALY":"255.5925","MEAN_MOTION":"15.06386219","RCS_SIZE":"LARGE","FILE":"3928201","MEAN_MOTION_DDOT":"0.0000000000000","REF_FRAME":"TEME","SITE":"AFETR","EPOCH":"2023-06-08T13:38:15.459072","BSTAR":"0.00120980000000","GP_ID":"233501573","SEMIMAJOR_AXIS":"6925.391","CENTER_NAME":"EARTH","EPHEMERIS_TYPE":"0"},{"NORAD_CAT_ID":"48682","RA_OF_ASC_NODE":"263.9582","MEAN_ELEMENT_THEORY":"SGP4","ARG_OF_PERICENTER":"108.7218","ECCENTRICITY":"0.00012220","DECAY_DATE":null,"OBJECT_TYPE":"PAYLOAD","OBJECT_NAME":"STARLINK-2743","INCLINATION":"53.0528","LAUNCH_DATE":"2021-05-26","TLE_LINE1":"1 48682U 21044AW  23159.56545898  .00003556  00000-0  25754-3 0  9994","MEAN_MOTION_DOT":"0.00003556","GP_ID":"233501823","EPOCH":"2023-06-08T13:34:15.655872","SITE":"AFETR","BSTAR":"0.00025754000000","CENTER_NAME":"EARTH","EPHEMERIS_TYPE":"0","SEMIMAJOR_AXIS":"6925.373","TIME_SYSTEM":"UTC","TLE_LINE2":"2 48682  53.0528 263.9582 0001222 108.7218 251.3903 15.06391955112902","PERIOD":"95.593","REV_AT_EPOCH":"11290","OBJECT_ID":"2021-044AW","ELEMENT_SET_NO":"999","COUNTRY_CODE":"US","PERIAPSIS":"546.392","APOAPSIS":"548.084","CLASSIFICATION_TYPE":"U","REF_FRAME":"TEME","FILE":"3928201","MEAN_MOTION_DDOT":"0.0000000000000","MEAN_MOTION":"15.06391955","MEAN_ANOMALY":"251.3903","RCS_SIZE":"LARGE"},{"NORAD_CAT_ID":"48683","RA_OF_ASC_NODE":"262.8142","MEAN_ELEMENT_THEORY":"SGP4","ARG_OF_PERICENTER":"95.9900","ECCENTRICITY":"0.00009550","DECAY_DATE":null,"OBJECT_TYPE":"PAYLOAD","OBJECT_NAME":"STARLINK-2756","INCLINATION":"53.0531","TLE_LINE1":"1 48683U 21044AX  23159.78659668  .00026752  00000-0  18081-2 0  9997","LAUNCH_DATE":"2021-05-26","MEAN_MOTION_DOT":"0.00026752","GP_ID":"233503076","EPOCH":"2023-06-08T18:52:41.953152","SITE":"AFETR","BSTAR":"0.00180810000000","CENTER_NAME":"EARTH","EPHEMERIS_TYPE":"0","SEMIMAJOR_AXIS":"6925.350","TIME_SYSTEM":"UTC","REV_AT_EPOCH":"11294","TLE_LINE2":"2 48683  53.0531 262.8142 0000955  95.9900 264.1198 15.06399412112942","PERIOD":"95.592","OBJECT_ID":"2021-044AX","ELEMENT_SET_NO":"999","COUNTRY_CODE":"US","PERIAPSIS":"546.554","APOAPSIS":"547.877","CLASSIFICATION_TYPE":"U","REF_FRAME":"TEME","MEAN_MOTION_DDOT":"0.0000000000000","FILE":"3928201","MEAN_MOTION":"15.06399412","MEAN_ANOMALY":"264.1198","RCS_SIZE":"LARGE"},{"MEAN_ELEMENT_THEORY":"SGP4","RA_OF_ASC_NODE":"278.9522","NORAD_CAT_ID":"48684","ARG_OF_PERICENTER":"98.3662","OBJECT_TYPE":"PAYLOAD","DECAY_DATE":null,"ECCENTRICITY":"0.00011820","MEAN_MOTION_DOT":"0.00016042","LAUNCH_DATE":"2021-05-26","TLE_LINE1":"1 48684U 21044AY  23159.61017489  .00016042  00000-0  10938-2 0  9993","INCLINATION":"53.0535","OBJECT_NAME":"STARLINK-2741","BSTAR":"0.00109380000000","EPOCH":"2023-06-08T14:38:39.110496","SITE":"AFETR","GP_ID":"233478399","SEMIMAJOR_AXIS":"6925.393","EPHEMERIS_TYPE":"0","CENTER_NAME":"EARTH","PERIAPSIS":"546.439","APOAPSIS":"548.076","CLASSIFICATION_TYPE":"U","ELEMENT_SET_NO":"999","OBJECT_ID":"2021-044AY","COUNTRY_CODE":"US","TLE_LINE2":"2 48684  53.0535 278.9522 0001182  98.3662 261.7461 15.06385597113601","REV_AT_EPOCH":"11360","PERIOD":"95.593","TIME_SYSTEM":"UTC","RCS_SIZE":"LARGE","MEAN_MOTION":"15.06385597","MEAN_ANOMALY":"261.7461","REF_FRAME":"TEME","MEAN_MOTION_DDOT":"0.0000000000000","FILE":"3928080"},{"OBJECT_TYPE":"PAYLOAD","DECAY_DATE":null,"ECCENTRICITY":"0.00009660","LAUNCH_DATE":"2021-05-26","TLE_LINE1":"1 48685U 21044AZ  23159.55807073  .00022016  00000-0  14933-2 0  9990","MEAN_MOTION_DOT":"0.00022016","OBJECT_NAME":"STARLINK-2751","INCLINATION":"53.0535","MEAN_ELEMENT_THEORY":"SGP4","NORAD_CAT_ID":"48685","RA_OF_ASC_NODE":"263.8786","ARG_OF_PERICENTER":"101.6369","COUNTRY_CODE":"US","ELEMENT_SET_NO":"999","OBJECT_ID":"2021-044AZ","CLASSIFICATION_TYPE":"U","APOAPSIS":"547.961","PERIAPSIS":"546.623","TIME_SYSTEM":"UTC","TLE_LINE2":"2 48685  53.0535 263.8786 0000966 101.6369 258.4728 15.06374245112918","REV_AT_EPOCH":"11291","PERIOD":"95.594","MEAN_ANOMALY":"258.4728","MEAN_MOTION":"15.06374245","RCS_SIZE":"LARGE","FILE":"3928201","MEAN_MOTION_DDOT":"0.0000000000000","REF_FRAME":"TEME","SITE":"AFETR","EPOCH":"2023-06-08T13:23:37.311072","BSTAR":"0.00149330000000","GP_ID":"233502075","SEMIMAJOR_AXIS":"6925.427","CENTER_NAME":"EARTH","EPHEMERIS_TYPE":"0"},{"PERIOD":"95.593","TLE_LINE2":"2 48686  53.0532 269.1351 0001092  64.2547 295.8554 15.06386269112838","REV_AT_EPOCH":"11283","TIME_SYSTEM":"UTC","CLASSIFICATION_TYPE":"U","PERIAPSIS":"546.499","APOAPSIS":"548.012","COUNTRY_CODE":"US","ELEMENT_SET_NO":"999","OBJECT_ID":"2021-044BA","FILE":"3928201","MEAN_MOTION_DDOT":"0.0000000000000","REF_FRAME":"TEME","RCS_SIZE":"LARGE","MEAN_ANOMALY":"295.8554","MEAN_MOTION":"15.06386269","GP_ID":"233502325","BSTAR":"0.00129270000000","SITE":"AFETR","EPOCH":"2023-06-08T13:15:02.762784","EPHEMERIS_TYPE":"0","CENTER_NAME":"EARTH","SEMIMAJOR_AXIS":"6925.391","ECCENTRICITY":"0.00010920","DECAY_DATE":null,"OBJECT_TYPE":"PAYLOAD","INCLINATION":"53.0532","OBJECT_NAME":"STARLINK-2629","MEAN_MOTION_DOT":"0.00019018","LAUNCH_DATE":"2021-05-26","TLE_LINE1":"1 48686U 21044BA  23159.55211531  .00019018  00000-0  12927-2 0  9998","RA_OF_ASC_NODE":"269.1351","NORAD_CAT_ID":"48686","MEAN_ELEMENT_THEORY":"SGP4","ARG_OF_PERICENTER":"64.2547"},{"ARG_OF_PERICENTER":"108.3006","MEAN_ELEMENT_THEORY":"SGP4","NORAD_CAT_ID":"48687","RA_OF_ASC_NODE":"258.9718","TLE_LINE1":"1 48687U 21044BB  23159.52719861  .00018512  00000-0  12590-2 0  9999","LAUNCH_DATE":"2021-05-26","MEAN_MOTION_DOT":"0.00018512","OBJECT_NAME":"STARLINK-2627","INCLINATION":"53.0526","OBJECT_TYPE":"PAYLOAD","DECAY_DATE":null,"ECCENTRICITY":"0.00009160","SEMIMAJOR_AXIS":"6925.404","CENTER_NAME":"EARTH","EPHEMERIS_TYPE":"0","SITE":"AFETR","EPOCH":"2023-06-08T12:39:09.959904","BSTAR":"0.00125900000000","GP_ID":"233470917","MEAN_ANOMALY":"251.8082","MEAN_MOTION":"15.06382003","RCS_SIZE":"LARGE","FILE":"3928007","MEAN_MOTION_DDOT":"0.0000000000000","REF_FRAME":"TEME","COUNTRY_CODE":"US","OBJECT_ID":"2021-044BB","ELEMENT_SET_NO":"999","CLASSIFICATION_TYPE":"U","PERIAPSIS":"546.634","APOAPSIS":"547.903","TIME_SYSTEM":"UTC","REV_AT_EPOCH":"11297","TLE_LINE2":"2 48687  53.0526 258.9718 0000916 108.3006 251.8082 15.06382003112974","PERIOD":"95.593"}];
